GAOFEN-11 01            
1 43585U 18063A   26157.94243334  .00016636  00000+0  24942-3 0  9991
2 43585  97.1294 224.8518 0004273  33.8521 326.3006 15.54993223438757
ICESAT-2                
1 43613U 18070A   26157.87473291  .00011563  00000+0  42021-3 0  9992
2 43613  92.0070 288.1944 0005166 122.0280 238.1472 15.28233087430885
HYSIS                   
1 43719U 18096A   26157.92576095  .00000776  00000+0  11291-3 0  9998
2 43719  97.9838 224.7537 0001604 112.3262 247.8120 14.78672992405905
KAZSTSAT                
1 43783U 18099AB  26157.89008830  .00001319  00000+0  11095-3 0  9991
2 43783  97.4264 190.2872 0007703  96.4909 263.7192 14.99838012409763
SAUDISAT 5A             
1 43831U 18102A   26157.94877281  .00006134  00000+0  22734-3 0  9992
2 43831  97.3068 219.7276 0010224 161.3529 198.8088 15.27941454414119
SAUDISAT 5B             
1 43833U 18102C   26157.96935567  .00005858  00000+0  21548-3 0  9992
2 43833  97.3175 222.7989 0010853 164.0261 196.1323 15.28203993414232
GAOFEN-10R              
1 44622U 19066A   26157.96587825  .00001251  00000+0  16056-3 0  9990
2 44622  98.0497 111.4710 0005948 156.2199 203.9290 14.83038235360866
CARTOSAT-3              
1 44804U 19081A   26157.94837679  .00003038  00000+0  14733-3 0  9997
2 44804  97.4309 219.9795 0012205 181.9611 178.1578 15.19206819361912
GAOFEN-12 01            
1 44819U 19082A   26157.94150336  .00000425  00000+0  62158-4 0  9994
2 44819  97.8101 164.5914 0002487  82.5516 277.5979 14.80450093352574
CSG-1                   
1 44873U 19092A   26157.92476243  .00000451  00000+0  63218-4 0  9998
2 44873  97.8887 341.6760 0001456  90.9361 269.2019 14.82156211349956
NEMO-HD                 
1 46277U 20061F   26157.95793881  .00012021  00000+0  26209-3 0  9993
2 46277  97.1920 220.0155 0002631  92.1225 268.0325 15.44386635320404
SENTINEL-6A             
1 46984U 20086A   26157.70138408 -.00000046  00000+0  64048-4 0  9995
2 46984  66.0384 156.8315 0007957 270.3047  89.7057 12.80929701258987
CAS500-1                
1 47932U 21022A   26157.92612032  .00007986  00000+0  37143-3 0  9998
2 47932  97.3907  53.3863 0004312 342.8113  17.2975 15.20214466289205
GAOFEN-12 02            
1 48079U 21026A   26157.95146744  .00000406  00000+0  60291-4 0  9991
2 48079  97.9920 156.1741 0003317 267.7453  92.3379 14.80288180280248
PLEIADES NEO 3          
1 48268U 21034A   26156.57002736  .00000281  00000+0  42291-4 0  9990
2 48268  97.8935 231.5042 0001394  99.1938 260.9433 14.81673923275931
PLEIADES NEO 4          
1 49070U 21073E   26157.14404851  .00000450  00000+0  63795-4 0  9993
2 49070  97.8928 232.0648 0001391  84.3469 275.7903 14.81670310259738
LANDSAT 9               
1 49260U 21088A   26157.62133424  .00000364  00000+0  90967-4 0  9993
2 49260  98.2277 227.9263 0001446  89.2001 270.9363 14.57103573249465
CSG-2                   
1 51444U 22008A   26157.35089398  .00000865  00000+0  11522-3 0  9998
2 51444  97.8885 341.1056 0001500  82.8328 277.3056 14.82168009234987
GAOFEN-12 03            
1 52912U 22069A   26157.91191442  .00000947  00000+0  13187-3 0  9992
2 52912  97.8287  46.0406 0001574 110.7461 249.3920 14.80017828213092
SWOT                    
1 54754U 22173A   26157.91319379  .00000005  00000+0  49984-5 0  9996
2 54754  77.6113  49.1796 0000184  96.4506 263.6666 14.00168354177711
GAOFEN-12 04            
1 57654U 23123A   26157.92994257  .00001096  00000+0  15103-3 0  9994
2 57654  97.9129  76.0949 0001785  87.7335 272.4082 14.80208974151112
PARS 1                  
1 59065U 24039Q   26157.95593814  .00012107  00000+0  25368-3 0  9995
2 59065  97.4823 138.5556 0010822 142.4259 217.7748 15.45513205127066
RESURS-P 4              
1 59371U 24061A   26157.94385267  .00003481  00000+0  11488-3 0  9993
2 59371  97.2748 106.0217 0001394 131.7828 228.3534 15.32072557122197
LEGION 1                
1 59625U 24081A   26157.93452809  .00004029  00000+0  20946-3 0  9991
2 59625  97.5013 235.9015 0010444  50.9479 309.2682 15.16595984115983
LEGION 2                
1 59626U 24081B   26157.96437329  .00004462  00000+0  23166-3 0  9993
2 59626  97.5013 236.0289 0011760  19.7466 340.4219 15.16575362115992
ALOS-4 (DAICHI-4)       
1 60182U 24123A   26157.81067848  .00001689  00000+0  23294-3 0  9998
2 60182  97.9239 255.1300 0001681  98.6257 261.5145 14.79475508104343
LEGION 3                
1 60452U 24146A   26157.91731412  .00004672  00000+0  25274-3 0  9994
2 60452  45.0006  85.6307 0006827 104.7280 255.4356 15.15958744100468
LEGION 4                
1 60453U 24146B   26157.92035161  .00004133  00000+0  22487-3 0  9999
2 60453  44.9999 177.5255 0014021 255.1477 104.7848 15.15960965 99316
SENTINEL-2C             
1 60989U 24157A   26157.96274667  .00000112  00000+0  59476-4 0  9997
2 60989  98.5693 232.8891 0001197  79.3042 280.8276 14.30815029 91523
IONOSFERA-M 1           
1 61735U 24199A   26157.92619929  .00000051  00000+0  42427-4 0  9993
2 61735  98.7186  31.2062 0001633 124.1709 235.9624 14.22752413126241
