OBJECT_NAME,OBJECT_ID,EPOCH,MEAN_MOTION,ECCENTRICITY,INCLINATION,RA_OF_ASC_NODE,ARG_OF_PERICENTER,MEAN_ANOMALY,EPHEMERIS_TYPE,CLASSIFICATION_TYPE,NORAD_CAT_ID,ELEMENT_SET_NO,REV_AT_EPOCH,BSTAR,MEAN_MOTION_DOT,MEAN_MOTION_DDOT
GAOFEN-11 01,2018-063A,2026-06-06T22:37:06.240576,15.54993223,.00042735,97.1294,224.8518,33.8521,326.3006,0,U,43585,999,43875,.24941908E-3,.16636E-3,0
ICESAT-2,2018-070A,2026-06-06T20:59:36.923424,15.28233087,.00051664,92.0070,288.1944,122.0280,238.1472,0,U,43613,999,43088,.42020713E-3,.11563E-3,0
HYSIS,2018-096A,2026-06-06T22:13:05.746080,14.78672992,.00016047,97.9838,224.7537,112.3262,247.8120,0,U,43719,999,40590,.11291022E-3,.776E-5,0
KAZSTSAT,2018-099AB,2026-06-06T21:21:43.629120,14.99838012,.00077031,97.4264,190.2872,96.4909,263.7192,0,U,43783,999,40976,.11094878E-3,.1319E-4,0
SAUDISAT 5A,2018-102A,2026-06-06T22:46:13.970784,15.27941454,.00102241,97.3068,219.7276,161.3529,198.8088,0,U,43831,999,41411,.22733905E-3,.6134E-4,0
SAUDISAT 5B,2018-102C,2026-06-06T23:15:52.329888,15.28203993,.00108538,97.3175,222.7989,164.0261,196.1323,0,U,43833,999,41423,.21547805E-3,.5858E-4,0
GAOFEN-10R,2019-066A,2026-06-06T23:10:51.880800,14.83038235,.00059484,98.0497,111.4710,156.2199,203.9290,0,U,44622,999,36086,.16055677E-3,.1251E-4,0
CARTOSAT-3,2019-081A,2026-06-06T22:45:39.754656,15.19206819,.0012205,97.4309,219.9795,181.9611,178.1578,0,U,44804,999,36191,.14732633E-3,.3038E-4,0
GAOFEN-12 01,2019-082A,2026-06-06T22:35:45.890304,14.80450093,.00024877,97.8101,164.5914,82.5516,277.5979,0,U,44819,999,35257,.62158062E-4,.425E-5,0
CSG-1,2019-092A,2026-06-06T22:11:39.473952,14.82156211,.00014569,97.8887,341.6760,90.9361,269.2019,0,U,44873,999,34995,.63218232E-4,.451E-5,0
NEMO-HD,2020-061F,2026-06-06T22:59:25.913184,15.44386635,.00026319,97.1920,220.0155,92.1225,268.0325,0,U,46277,999,32040,.26209439E-3,.12021E-3,0
SENTINEL-6A,2020-086A,2026-06-06T16:49:59.584512,12.80929701,.00079571,66.0384,156.8315,270.3047,89.7057,0,U,46984,999,25898,.64048475E-4,-.46E-6,0
CAS500-1,2021-022A,2026-06-06T22:13:36.795648,15.20214466,.00043123,97.3907,53.3863,342.8113,17.2975,0,U,47932,999,28920,.37142607E-3,.7986E-4,0
GAOFEN-12 02,2021-026A,2026-06-06T22:50:06.786816,14.80288180,.00033178,97.9920,156.1741,267.7453,92.3379,0,U,48079,999,28024,.60290752E-4,.406E-5,0
PLEIADES NEO 3,2021-034A,2026-06-05T13:40:50.363904,14.81673923,.00013942,97.8935,231.5042,99.1938,260.9433,0,U,48268,999,27593,.42290641E-4,.281E-5,0
PLEIADES NEO 4,2021-073E,2026-06-06T03:27:25.791264,14.81670310,.00013915,97.8928,232.0648,84.3469,275.7903,0,U,49070,999,25973,.63794892E-4,.45E-5,0
LANDSAT 9,2021-088A,2026-06-06T14:54:43.278336,14.57103573,.00014462,98.2277,227.9263,89.2001,270.9363,0,U,49260,999,24946,.90966914E-4,.364E-5,0
CSG-2,2022-008A,2026-06-06T08:25:17.239872,14.82168009,.00015003,97.8885,341.1056,82.8328,277.3056,0,U,51444,999,23498,.11521837E-3,.865E-5,0
GAOFEN-12 03,2022-069A,2026-06-06T21:53:09.405888,14.80017828,.00015746,97.8287,46.0406,110.7461,249.3920,0,U,52912,999,21309,.13186588E-3,.947E-5,0
SWOT,2022-173A,2026-06-06T21:54:59.943456,14.00168354,.00001841,77.6113,49.1796,96.4506,263.6666,0,U,54754,999,17771,.49984E-5,.5E-7,0
GAOFEN-12 04,2023-123A,2026-06-06T22:19:07.038048,14.80208974,.00017853,97.9129,76.0949,87.7335,272.4082,0,U,57654,999,15111,.15102931E-3,.1096E-4,0
PARS 1,2024-039Q,2026-06-06T22:56:33.055296,15.45513205,.00108221,97.4823,138.5556,142.4259,217.7748,0,U,59065,999,12706,.25367874E-3,.12107E-3,0
RESURS-P 4,2024-061A,2026-06-06T22:39:08.870688,15.32072557,.00013944,97.2748,106.0217,131.7828,228.3534,0,U,59371,999,12219,.1148759E-3,.3481E-4,0
LEGION 1,2024-081A,2026-06-06T22:25:43.226976,15.16595984,.00104446,97.5013,235.9015,50.9479,309.2682,0,U,59625,999,11598,.20946118E-3,.4029E-4,0
LEGION 2,2024-081B,2026-06-06T23:08:41.852256,15.16575362,.00117601,97.5013,236.0289,19.7466,340.4219,0,U,59626,999,11599,.23165942E-3,.4462E-4,0
ALOS-4 (DAICHI-4),2024-123A,2026-06-06T19:27:22.620672,14.79475508,.00016816,97.9239,255.1300,98.6257,261.5145,0,U,60182,999,10434,.23293895E-3,.1689E-4,0
LEGION 3,2024-146A,2026-06-06T22:00:55.939968,15.15958744,.00068279,45.0006,85.6307,104.7280,255.4356,0,U,60452,999,10046,.25273802E-3,.4672E-4,0
LEGION 4,2024-146B,2026-06-06T22:05:18.379104,15.15960965,.00140213,44.9999,177.5255,255.1477,104.7848,0,U,60453,999,9931,.22487245E-3,.4133E-4,0
SENTINEL-2C,2024-157A,2026-06-06T23:06:21.312288,14.30815029,.00011977,98.5693,232.8891,79.3042,280.8276,0,U,60989,999,9152,.59475803E-4,.112E-5,0
IONOSFERA-M 1,2024-199A,2026-06-06T22:13:43.618656,14.22752413,.00016337,98.7186,31.2062,124.1709,235.9624,0,U,61735,999,12624,.42427402E-4,.51E-6,0
